gss,name,email,phone,website,postcode,address
E06000001,Hartlepool Borough Council,elections@hartlepool.gov.uk,01429 523017,http://www.hartlepool.gov.uk/,TS24 8AY,"Electoral Registration Officer
Civic Centre
Victoria Road"
E06000002,Middlesbrough Borough Council,elections@middlesbrough.gov.uk,01642 729771,http://www.middlesbrough.gov.uk/,TS1 9FX,"Electoral Registration Officer
P.O. Box 503
Town Hall"
E06000003,Redcar and Cleveland Borough Council,electoral_registration@redcar-cleveland.gov.uk,01642 444410,http://www.redcar-cleveland.gov.uk/,TS10 1RT,"Electoral Registration Officer
Redcar & Cleveland House
Kirkleatham Street"
E06000004,Stockton-on-Tees Borough Council,electoral@stockton.gov.uk,01642 526196,http://www.stockton.gov.uk/,TS18 1LD,"Electoral Registration Officer
Stockton-on-Tees Borough Council
Municipal Buildings
Church Road"
E06000005,Darlington Borough Council,democratic@darlington.gov.uk,01325 406444,http://www.darlington.gov.uk/,DL1 5QT,"Electoral Registration Officer
Darlington Borough Council
Town Hall
Feethams"
E06000006,Halton Borough Council,electoral@halton.gov.uk,0303 333 4300,http://www3.halton.gov.uk/Pages/Home.aspx,WA8 7QF,"Electoral Registration Officer
Municipal Buildings
Kingsway
Widnes"
E06000007,Warrington Borough Council,elections@warrington.gov.uk,01925 442184,http://www.warrington.gov.uk/,WA1 1UH,"Electoral Registration Officer
Electoral Services
Town Hall - East Annex"
E06000008,Blackburn with Darwen Borough Council,voting@blackburn.gov.uk,01254 585920,http://www.blackburn.gov.uk/Pages/Home.aspx,BB1 7DY,"Electoral Registration Officer
Town Hall
Blackburn"
E06000009,Blackpool Borough Council,electoral.registration@blackpool.gov.uk,01253 477490 / 477161,http://www.blackpool.gov.uk/,FY1 9SD,"Electoral Registration Officer
Electoral Services
PO Box 1066
Town Hall"
E06000010,Kingston-upon-Hull City Council,electoral.services@hullcc.gov.uk,01482 300 302,http://www.hullcc.gov.uk/,HU1 2AA,"Electoral Registration Officer
Electoral Services
The Guildhall
Alfred Gelder Street"
E06000011,East Riding of Yorkshire Council,electoral.services@eastriding.gov.uk,01482 393313,http://www2.eastriding.gov.uk/,HU17 9BA,"Electoral Registration Officer
Electoral Services
East Riding of Yorkshire Council
County Hall"
E06000012,North East Lincolnshire Council,elections@nelincs.gov.uk,01472 324160,http://www.nelincs.gov.uk/,DN31 1HU,"Electoral Registration Officer
Municipal Offices
Town Hall Square"
E06000013,North Lincolnshire Council,elections@northlincs.gov.uk,01724 296245,http://www.northlincs.gov.uk/,DN15 6NL,"Electoral Registration Officer
Church Square House
30-40 High Street
Scunthorpe
North Lincolnshire"
E06000014,York City Council,electoral.services@york.gov.uk,01904 551007,http://www.york.gov.uk/,YO1 6GA,"Electoral Registration Officer
West Offices
Station Rise
York"
E06000015,Derby City Council,elections@derby.gov.uk,01332 640837,http://www.derby.gov.uk/,DE1 2FS,"Electoral Registration Officer
Derby City Council
The Council House
Corporation Street"
E06000016,Leicester City Council,electoral.services@leicester.gov.uk,0116 4542000,http://www.leicester.gov.uk/homepage.aspx,LE1 6FB,"Electoral Registration Officer
91 Granby Street
4th Floor
Leicester
York House"
E06000017,Rutland County Council,elections@rutland.gov.uk,01572 720954,http://www.rutland.gov.uk/,LE15 6HP,"Electoral Registration Officer
District Council
Catmose
Oakham"
E06000018,Nottingham City Council,elections@nottinghamcity.gov.uk,0115 8764111,http://www.nottinghamcity.gov.uk/,NG2 3NG,"Electoral Registration Officer
Loxley House
Station Street"
E06000019,Herefordshire Council,elections@herefordshire.gov.uk,01432 260107 / 260191,http://www.herefordshire.gov.uk/,HR1 2PJ,"Electoral Services Office
Town Hall
St Owen Street"
E06000020,Telford and Wrekin Council,elections@telford.gov.uk,01952 383206,http://www.telford.gov.uk/,TF3 4NT,"Electoral Registration Officer
Electoral Services Office
Addenbrooke House
Telford
Ironmasters Way"
E06000021,Stoke on Trent City Council,elections@stoke.gov.uk,01782 233800,http://www.stoke.gov.uk/ccm/portal/,ST4 1RG,"Electoral Registration Officer
Electoral Services
PO Box 631
Civic Centre; Glebe Street"
E06000022,Bath & North East Somerset Council,elections@bathnes.gov.uk,01225 477333,http://www.bathnes.gov.uk/,BA1 5AW,"Electoral Registration Officer
Guildhall
High Street"
E06000023,Bristol City Council,electoral.services@bristol.gov.uk,0117 9223400,http://www.bristol.gov.uk/,BS1 6XN,"Electoral Services
Bristol City Council
5th Floor, BBond Warehouse
Bristol
Smeaton Road"
E06000024,North Somerset Council,electoral.services@n-somerset.gov.uk,01934 634 909,http://www.n-somerset.gov.uk/,BS23 1UJ,"Electoral Registration Officer
Town Hall
Walliscote Grove Road
Weston-super-Mare"
E06000025,South Gloucestershire Council,electoral.services@southglos.gov.uk,01454 863030,http://www.southglos.gov.uk/,BS37 0DB,"Electoral Registration and Returning Officer
PO Box 1953"
E06000026,Plymouth City Council,ero@plymouth.gov.uk,01752 304866,http://www.plymouth.gov.uk/,PL1 3BJ,"Electoral Registration Officer
Plymouth City Council
Ballard House
Plymouth
West Hoe Road"
E06000027,Torbay Council,electoral.registration@torbay.gov.uk,01803 208008,http://www.torbay.gov.uk/,TQ1 3DR,"Electoral Registration Officer
Civic Offices
Castle Circus
Torquay"
E06000030,Swindon Borough Council,elecreg@swindon.gov.uk,01793 464601,http://www.swindon.gov.uk/Pages/Home.aspx,SN1 2JH,"Electoral Registration Officer
Civic Offices
Euclid Street"
E06000031,Peterborough City Council,electoralservices@peterborough.gov.uk,01733 452249,http://www.peterborough.gov.uk/,PE1 1GF,"Electoral Registration Officer
Electoral Services
Bridge Street; Town Hall"
E06000032,Luton Borough Council,electoral_services@luton.gov.uk,01582 510380,http://www.luton.gov.uk/,LU1 2BQ,"The Electoral Registration Officer
Luton Borough Council
Town Hall
George Street"
E06000033,Southend-on-Sea Borough Council,elections@southend.gov.uk,01702 215010,http://www.southend.gov.uk/,SS2 6FA,"Electoral Registration Officer
Civic Centre
Victoria Avenue"
E06000034,Thurrock Council,electoral.services@thurrock.gov.uk,01375 652816,http://www.thurrock.gov.uk/,RM17 6SL,"Electoral Registration Officer
Electoral Services
Civic Offices
New Road; Grays"
E06000035,Medway Council,electoralservices@medway.gov.uk,01634 332030,http://www.medway.gov.uk/,ME4 4TR,"Electoral Registration Officer
Gun Wharf
Dock Road
Chatham"
E06000036,Bracknell Forest Borough Council,voting@bracknell-forest.gov.uk,01344 352000,http://www.bracknell-forest.gov.uk/,RG12 1JD,"Electoral Registration Officer
Electoral Services
Time Square
Bracknell
Market Street"
E06000037,West Berkshire Council,electoralservices@westberks.gov.uk,01635 519464,http://www.westberks.gov.uk/,RG14 5LD,"Electoral Registration Officer
West Berkshire Council
Market Street
Newbury"
E06000038,Reading Borough Council,elections@reading.gov.uk,0118 937 3717,http://www.reading.gov.uk/,RG1 2LU,"Electoral Registration Officer
Bridge Street
Civic Offices"
E06000039,Slough Borough Council,ballotbox@slough.gov.uk,01753 477235 or 477236,http://www.slough.gov.uk/,SL1 2EJ,"Electoral Registration Officer
3rd Floor
Observatory House
25 Windsor Road
Slough"
E06000040,Royal Borough of Windsor and Maidenhead,electoral.registration@rbwm.gov.uk,01628 683868,http://www.rbwm.gov.uk/,SL6 1RF,"Electoral Registration Officer
Town Hall
St Ives Road
Maidenhead"
E06000041,Wokingham Borough Council,electoralservices@wokingham.gov.uk,0118 974 6522 / 6523,http://www.wokingham.gov.uk/,RG40 1BN,"Electoral Registration Officer
Civic Offices
Shute End"
E06000042,Milton Keynes Council,elections@milton-keynes.gov.uk,01908 254706,http://www.milton-keynes.gov.uk/,MK9 3EJ,"Electoral Registration Officer
Civic Offices
1 Saxon Gate East"
E06000043,Brighton and Hove Council,electors@brighton-hove.gov.uk,01273 291999,http://www.brighton-hove.gov.uk/,BN3 3BQ,"Electoral Registration Officer
Town Hall
Norton Road
Hove"
E06000044,Portsmouth City Council,elections@portsmouthcc.gov.uk,023 9283 4074,http://www.portsmouth.gov.uk/home.aspx,PO1 2QR,"Electoral Registration Officer
Civic Offices
Guildhall Square"
E06000045,Southampton City Council,elections@southampton.gov.uk,023 8083 2245,http://www.southampton.gov.uk/,SO14 7LY,"Freepost RTKU-LUJL-HCYG
Electoral Registration Officer
Southampton City Council
Civic Centre"
E06000046,Isle of Wight Council,electoral.services@iow.gov.uk,01983 823380,http://www.iow.gov.uk/Council/Elections/Electoral-Registration/About-Electoral-Registration,PO30 1UD,"Electoral Services
County Hall
Newport"
E06000047,Durham County Council,electoralservices@durham.gov.uk,03000 261212,http://www.durham.gov.uk/elections,DH1 5UL,"Electoral Services
Durham County Council
County Hall"
E06000049,Cheshire East Council,electoral.information@cheshireeast.gov.uk,0300 123 5016,http://www.cheshireeast.gov.uk/,CW1 2BJ,"Electoral Services Department
Macclesfield Town Hall
C/O Municipal Buildings
Crewe
Earle Street"
E06000050,Cheshire West and Chester,elreg@cheshirewestandchester.gov.uk,01244 977084,http://www.cheshirewestandchester.gov.uk/,CH65 0BE,"Electoral Registration Officer
Cheshire West & Chester
4 Civic Way
Ellesmere Port"
E06000051,Shropshire Council,elections@shropshire.gov.uk,0345 678 9015,http://www.shropshire.gov.uk/,SY2 6ND,"Electoral Registration Officer
Shirehall
Abbey Foregate
Shrewsbury"
E06000052,Cornwall Council,voter-registration@cornwall.gov.uk,0300 123 1115,http://www.cornwall.gov.uk/,PL25 5DR,"Electoral Services
St Austell One Stop Shop
39 Penwinnick Road
St Austell"
E06000053,Council of the Isles of Scilly,elections@scilly.gov.uk,01720 424008,http://www.scilly.gov.uk/,TR21 0LW,"Electoral Registration Officer
Town Hall
St Mary's"
E06000054,Wiltshire Council,elections@wiltshire.gov.uk,0300 456 0112,http://www.wiltshire.gov.uk/,BA14 8JN,"Electoral Services
County Hall
Bythesea Road
Trowbridge"
E06000055,Bedford Borough Council,electoral.registration@bedford.gov.uk,01234 718078,http://www.bedford.gov.uk/democracy,MK42 9AP,"Electoral Registration Officer
Room 326 Borough Hall
Cauldwell Street"
E06000056,Central Bedfordshire Council,electoral.registration@centralbedfordshire.gov.uk,0300 300 8008,http://www.centralbedfordshire.gov.uk/,SG17 5TQ,"Electoral Registration Officer
Priory House
Monks Walk; Chicksands"
E06000057,Northumberland County Council,elections@northumberland.gov.uk,01670 624811,http://www.northumberland.gov.uk/,NE61 2EF,"Electoral Registration Officer
County Hall
Morpeth"
E06000058,"Bournemouth, Christchurch & Poole Council",elections@bcpcouncil.gov.uk,01202 633097,https://www.bcpcouncil.gov.uk,BH2 6DY,"Town Hall
Bourne Avenue
Bournemouth"
E06000059,Dorset Council,elections@dorsetcouncil.gov.uk,01305 838299,https://www.dorsetcouncil.gov.uk/,DT1 1UZ,"South Walks House
South Walks Road
Dorchester"
E07000004,Buckinghamshire Council,ereg.av@buckinghamshire.gov.uk,01296 585701,https://www.buckinghamshire.gov.uk/your-council/elections-and-voting/,HP19 8FF,"Electoral Registration Officer
The Gateway
Gatehouse Road
Aylesbury"
E07000005,Buckinghamshire Council,elections.csb@buckinghamshire.gov.uk,01494 732014,https://www.buckinghamshire.gov.uk/your-council/elections-and-voting/,HP6 5AW,"Electoral Registration Officer
King George V House
King George V Road
Amersham"
E07000006,Buckinghamshire Council,elections.csb@buckinghamshire.gov.uk,01895 837200,https://www.buckinghamshire.gov.uk/your-council/elections-and-voting/,UB9 4LH,"Electoral Registration Officer
Council Offices
Capswood
Oxford Road"
E07000007,Buckinghamshire Council,elections.wyc@buckinghamshire.gov.uk,01494 421180,https://www.buckinghamshire.gov.uk/your-council/elections-and-voting/,HP11 1BB,"Electoral Registration Officer
Council Offices
Queen Victoria Road
High Wycombe"
E07000008,Cambridge City Council,elections@cambridge.gov.uk,01223 457048,http://www.cambridge.gov.uk/,CB1 0JH,"Electoral Registration Officer
Electoral Services
PO Box 700"
E07000009,East Cambridgeshire District Council,elections@eastcambs.gov.uk,01353 665555,http://www.eastcambs.gov.uk/,CB7 4EE,"Electoral Registration Officer
The Grange
Nutholt Lane
Ely"
E07000010,Fenland District Council,elections@fenland.gov.uk,01354 654321,http://www.fenland.gov.uk/,PE15 8NQ,"Electoral Registration Officer
Fenland Hall
County Road
March"
E07000011,Huntingdonshire District Council,elections@huntingdonshire.gov.uk,01480 388017,http://www.huntingdonshire.gov.uk,PE29 3TN,"Electoral Registration Officer
Pathfinder House
St Mary’s Street
Huntingdon"
E07000012,South Cambridgeshire District Council,election@scambs.gov.uk,03450 455214,http://www.scambs.gov.uk/,CB23 6EA,"Electoral Registration Officer
South Cambridgeshire Hall
Cambourne Business Park; Cambourne"
E07000026,Allerdale Borough Council,electoralservices@allerdale.gov.uk,01900 702550,http://www.allerdale.gov.uk/,CA14 3YJ,"Electoral Registration Officer
Allerdale House
Workington"
E07000027,Barrow-in-Furness Borough Council,elecreg@barrowbc.gov.uk,01229 876318,http://www.barrowbc.gov.uk/,LA14 2LD,"Electoral Registration Officer
Town Hall
Duke Street
Barrow-in-Furness"
E07000028,Carlisle City Council,elections@carlisle.gov.uk,01228 817555 / 817556,http://www.carlisle.gov.uk/,CA3 8QG,"Electoral Registration Officer
Civic Centre"
E07000029,Copeland Borough Council,elections@copeland.gov.uk,01946 598300,http://www.copelandbc.gov.uk/,CA28 7SJ,"Electoral Registration Officer
The Copeland Centre
Catherine Street
Whitehaven"
E07000030,Eden District Council,elections@eden.gov.uk,01768 212253,http://www.eden.gov.uk/,CA11 7QF,"Electoral Registration Officer
Town Hall
Penrith"
E07000031,South Lakeland District Council,elections@southlakeland.gov.uk,01539 733333,http://www.southlakeland.gov.uk/,LA9 4UQ,"Electoral Registration Officer
South Lakeland House
Lowther Street"
E07000032,Amber Valley Borough Council,enquiry@ambervalley.gov.uk,01773 841634,http://www.ambervalley.gov.uk/,DE5 3BT,"Electoral Registration Officer
Elections Office
PO Box 15
Town Hall; Market Place"
E07000033,Bolsover District Council,electoral.enquiries@bolsover.gov.uk,01246 242435,http://www.bolsover.gov.uk/,S43 4JY,"Electoral Registration Officer
The Arc
High Street
Chesterfield
Clowne"
E07000034,Chesterfield Borough Council,elections@chesterfield.gov.uk,01246 345806,http://www.chesterfield.gov.uk/,S40 1LP,"Electoral Registration Officer
Town Hall
Rose Hill
Chesterfield"
E07000035,Derbyshire Dales District Council,electoral@derbyshiredales.gov.uk,01629 761335,http://www.derbyshiredales.gov.uk/,DE4 3NN,"Electoral Registration Officer
Town Hall
Bank Road
Matlock"
E07000036,Erewash Borough Council,electreg@erewash.gov.uk,0115 9071112,http://www.erewash.gov.uk/,DE7 5RP,"Electoral Registration Officer
Town Hall
Wharncliffe Road
Ilkeston"
E07000037,High Peak Borough Council,elections@highpeak.gov.uk,0345 1294851,http://www.highpeak.gov.uk/,SK17 6EL,"Electoral Registration Officer
Buxton Town Hall
Market Place
Buxton"
E07000038,North East Derbyshire District Council,elections@ne-derbyshire.gov.uk,01246 217069 / 01246 217068,http://www.ne-derbyshire.gov.uk/,S42 6NG,"Electoral Registration Officer
District Council Offices
2013 Mill Lane
Wingerworth"
E07000039,South Derbyshire District Council,elections@south-derbys.gov.uk,01283 595723,http://www.south-derbys.gov.uk/,DE11 0AH,"Electoral Registration Officer
Civic Offices
Civic Way
Swadlincote"
E07000040,East Devon District Council,electoralservices@eastdevon.gov.uk,01395 571529,http://www.eastdevon.gov.uk/,EX14 1EJ,"Electoral Registration Officer
Blackdown House
Border Road
Honiton
Heathpark Industrial Estate"
E07000041,Exeter City Council,electoral.services@exeter.gov.uk,01392 265141,http://exeter.gov.uk/council-and-democracy/elections-and-voting/electoral-services/,EX1 1JN,"Electoral Registration Officer
Civic Centre
Paris Street"
E07000042,Mid Devon District Council,elections@middevon.gov.uk,01884 234219 / 234214,http://www.middevon.gov.uk/,EX16 6PP,"Electoral Registration Officer
Phoenix House
Phoenix Lane
Tiverton"
E07000043,North Devon Council,elections@northdevon.gov.uk,01271 388277,http://www.northdevon.gov.uk/,EX31 1DG,"Electoral Registration Officer
Lynton House
Commercial Road
Barnstaple"
E07000044,South Hams District Council,elections@southhams.gov.uk,01803 861234,http://www.southhams.gov.uk/,TQ9 5NE,"Electoral Registration Officer
Follaton House
Plymouth Road
Totnes"
E07000045,Teignbridge District Council,electoralservices@teignbridge.gov.uk,01626 215104,http://www.teignbridge.gov.uk/,TQ12 4XX,"Electoral Registrations Officer
Council Offices
Forde House
Brunel Road; Newton Abbot"
E07000046,Torridge District Council,elections@torridge.gov.uk,01237 428739,http://www.torridge.gov.uk/,EX39 2QG,"Electoral Registration Officer
Riverbank House
Bideford"
E07000047,West Devon Borough Council,elections@westdevon.gov.uk,01822 813665,http://www.westdevon.gov.uk/,PL19 0BZ,"Electoral Registration Officer
Kilworthy Park
Drake Road"
E07000061,Eastbourne Borough Council,elections@lewes-eastbourne.gov.uk,01323 410000,http://www.lewes-eastbourne.gov.uk,BN21 4UG,"Electoral Registration Officer
Town Hall
Grove Road"
E07000062,Hastings Borough Council,electoralservices@hastings.gov.uk,01424 451087,http://www.hastings.gov.uk/,TN34 3UY,"Electoral Registration Officer
Muriel Matters House
Breeds Place
Breeds Place"
E07000063,Lewes District Council,electoral@lewes.gov.uk,01273 471600,http://www.lewes.gov.uk/,BN7 1AB,"Electoral Registration Officer
Southover House
Southover Road
Lewes"
E07000064,Rother District Council,elections@rother.gov.uk,01424 787000,http://www.rother.gov.uk/,TN39 3JX,"Electoral Registration Officer
Town Hall
Bexhill-on-Sea"
E07000065,Wealden District Council,elections@wealden.gov.uk,01892 602417,http://www.wealden.gov.uk/,BN27 2AX,"Electoral Registration Officer
Wealden District Council
Vicarage Lane
Hailsham"
E07000066,Basildon Borough Council,elections@basildon.gov.uk,01268 207959,http://www.basildon.gov.uk/,SS14 1DL,"Electoral Registration Officer
The Basildon Centre
St Martins Square; Basildon"
E07000067,Braintree District Council,elections@braintree.gov.uk,01376 552525,http://www.braintree.gov.uk/,CM7 9HB,"Electoral Registration Officer
Causeway House
Braintree; Bocking End"
E07000068,Brentwood Borough Council,elections@brentwood.gov.uk,01277 312708,http://www.brentwood.gov.uk,CM15 8AY,"Electoral Registration Officer
Town Hall
Ingrave Road
Brentwood"
E07000069,Castle Point Borough Council,elections@castlepoint.gov.uk,01268 882200,http://www.castlepoint.gov.uk/,SS7 1TF,"Electoral Registration Officer
Kiln Road
Thundersley
Benfleet"
E07000070,Chelmsford City Council,electoral@chelmsford.gov.uk,01245 606449,http://www.chelmsford.gov.uk/,CM1 1JE,"Electoral Registration Officer
The Civic Centre
Duke Street"
E07000071,Colchester Borough Council,elections@colchester.gov.uk,01206 282820,http://www.colchester.gov.uk/,CO3 3WG,"Electoral Registration Officer
Electoral Services
Rowan House
33 Sheepen Road"
E07000072,Epping Forest District Council,elections@eppingforestdc.gov.uk,01992 564411,http://www.eppingforestdc.gov.uk/,CM16 4BZ,"Electoral Registration Officer
Civic Offices
High Street"
E07000073,Harlow District Council,registration@harlow.gov.uk,01279 446042/3,http://www.harlow.gov.uk/,CM18 7BL,"Electoral Registration Officer
The Latton Bush Centre
Southern Way"
E07000074,Maldon District Council,elections@maldon.gov.uk,01621 854477,http://www.maldon.gov.uk/,CM9 5DL,"Electoral Registration Office
Princes Road
Maldon"
E07000075,Rochford District Council,elections@rochford.gov.uk,01702 318187,http://www.rochford.gov.uk/,SS4 1BW,"Electoral Registration Officer
Council Offices
South Street
Rochford"
E07000076,Tendring District Council,elections@tendringdc.gov.uk,01255 686586,http://www.tendringdc.gov.uk/,CO15 1SE,"Electoral Registration Officer
Town Hall
Station Road
Clacton-on-Sea"
E07000077,Uttlesford District Council,elections@uttlesford.gov.uk,01799 510431/510432,http://www.uttlesford.gov.uk/,CB11 4ER,"Electoral Registration Officer
Council Office
London Road
Saffron Walden"
E07000078,Cheltenham Borough Council,elections@cheltenham.gov.uk,01242 264132,http://www.cheltenham.gov.uk/,GL50 9SA,"Electoral Registration Officer
Municipal Offices
Promenade
Cheltenham"
E07000079,Cotswold District Council,elections@cotswold.gov.uk,01285 623002,http://www.cotswold.gov.uk/,GL7 1PX,"Electoral Registration Officer
Trinity Road
Cirencester"
E07000080,Forest of Dean District Council,elec.reg@fdean.gov.uk,01594 812626/28,http://www.fdean.gov.uk/,GL16 8HG,"Electoral Registration Officer
Council Offices
High Street
Coleford"
E07000081,Gloucester City Council,elections@gloucester.gov.uk,01452 396203/396204,http://www.gloucester.gov.uk/,GL1 9FW,"Electoral Registration Officer
Legal and Democratic Services
Gloucester City Council
PO Box 3252
Gloucester"
E07000082,Stroud District Council,elections@stroud.gov.uk,01453 754886,http://www.stroud.gov.uk/,GL5 4UB,"Electoral Registration Officer
Ebley Mill
Westward Road
Stroud"
E07000083,Tewkesbury Borough Council,elections@tewkesbury.gov.uk,01684 272025,http://www.tewkesbury.gov.uk/,GL20 5TT,"Electoral Registration Officer
Council Offices
Gloucester Road
Tewkesbury"
E07000084,Basingstoke and Deane Borough Council,electoral.services@basingstoke.gov.uk,01256 844844,http://www.basingstoke.gov.uk/,RG21 4AH,"Electoral Registration Officer
Civic Offices
Deanes
Basingstoke
London Road"
E07000085,East Hampshire District Council,electoral.services@easthants.gov.uk,01730 234093 / 01730 234370,http://www.easthants.gov.uk/,GU31 4EX,"Electoral Registration Officer
Penns Place
Petersfield"
E07000086,Eastleigh Borough Council,elections@eastleigh.gov.uk,023 8068 8000,http://www.eastleigh.gov.uk/,S050 9YN,"Electoral Registration Officer
Eastleigh House
Upper Market Street
Eastleigh"
E07000087,Fareham Borough Council,elections@fareham.gov.uk,01329 824588,http://www.fareham.gov.uk/,PO16 7AZ,"Electoral Registration Officer
Civic Offices
Civic Way"
E07000088,Gosport Borough Council,electoralregistration@gosport.gov.uk,023 9254 5227 / 023 9254 5218,http://www.gosport.gov.uk/,PO12 1EB,"Electoral Registration Officer
Town Hall
High Street
Gosport"
E07000089,Hart District Council,elections@hart.gov.uk,01252 774077,http://www.hart.gov.uk/,GU51 4AE,"Electoral Registration Officer
Civic Offices
Harlington Way
Fleet"
E07000090,Havant Borough Council,elections.office@havant.gov.uk,023 9244 6225 / 023 9244 6226,http://www.havant.gov.uk/,PO9 2AX,"Electoral Registration Officer
Civic Offices
Civic Centre Road"
E07000091,New Forest District Council,electoralservices@nfdc.gov.uk,023 8028 5445,http://www.nfdc.gov.uk/,SO43 7PA,"Electoral Registration Officer
Appletree Court
Lyndhurst"
E07000092,Rushmoor Borough Council,elections@rushmoor.gov.uk,01252 398824,http://www.rushmoor.gov.uk/,GU14 7JU,"Electoral Registration Officer
Council Offices
Farnborough Road
Farnborough"
E07000093,Test Valley Borough Council,elecreg@testvalley.gov.uk,01264 368000,http://www.testvalley.gov.uk/,SP10 3AJ,"Electoral Registration Officer
Council Offices
Beech Hurst
Weyhill Road"
E07000094,Winchester City Council,ereg@winchester.gov.uk,01962 848125,http://www.winchester.gov.uk/,SO23 9LJ,"Electoral Registration Officer
City Offices
Colebrook Street
Winchester"
E07000095,Broxbourne Borough Council,elections@broxbourne.gov.uk,01992 785577,http://www.broxbourne.gov.uk/,EN8 9XQ,"Electoral Registration Officer
Borough Offices
Bishop's College
Churchgate"
E07000096,Dacorum Borough Council,ER@dacorum.gov.uk,01442 228000 and ask for Electoral Services,http://www.dacorum.gov.uk/,HP1 1DN,"Electoral Services
The Forum
Marlowes
Hemel Hempstead"
E07000098,Hertsmere Borough Council,elections@hertsmere.gov.uk,020 8207 7481,http://www.hertsmere.gov.uk/,WD6 1WA,"Electoral Registration Officer
Civic Offices
Elstree Way
Borehamwood"
E07000099,North Hertfordshire District Council,julie.williams@north-herts.gov.uk,01462 474305 / 474204 / 474205 / 474503,http://www.north-herts.gov.uk/,SG6 3JF,"Electoral Registration Officer
Gernon Road"
E07000102,Three Rivers District Council,enquiries@threerivers.gov.uk,01923 776611,http://www.threerivers.gov.uk/,WD3 1RL,"Electoral Registration Officer
Three Rivers House
Northway
Rickmansworth"
E07000103,Watford Borough Council,elections@watford.gov.uk,01923 278369,http://www.watford.gov.uk/,WD17 3EX,"Electoral Services Office
Room 22
Town Hall
Watford"
E07000105,Ashford Borough Council,vote@ashford.gov.uk,01233 330402,http://www.ashford.gov.uk/,TN23 1PL,"Electoral Registration Officer
Civic Centre
Tannery Lane
Ashford"
E07000106,Canterbury City Council,electoral.services@canterbury.gov.uk,01227 862 007,http://www.canterbury.gov.uk/,CT1 1YW,"Electoral Registration Officer
Electoral Services
Military Road"
E07000107,Dartford Borough Council,electoral.registration@dartford.gov.uk,01322 343501,http://www.dartford.gov.uk/,DA1 1DR,"Electoral Registration Officer
Room E1
Civic Centre
Dartford
Home Gardens"
E07000108,Dover District Council,vote@dover.gov.uk,01304 872344,http://www.dover.gov.uk/,CT16 3PJ,"Electoral Registration Officer
Council Offices
White Cliffs Business Park
Dover"
E07000109,Gravesham Borough Council,Electoral.services@gravesham.gov.uk,01474 337253,http://www.gravesham.gov.uk/,DA12 1AU,"Electoral Registration Officer
Civic Centre
Windmill Street
Gravesend"
E07000110,Maidstone Borough Council,registration@maidstone.gov.uk,01622 602007,http://www.maidstone.gov.uk/,ME15 6JQ,"Electoral Registration Officer
Registration Services
Maidstone House
King Street"
E07000111,Sevenoaks District Council,elections@sevenoaks.gov.uk,01732 227000,http://www.sevenoaks.gov.uk/,TN13 1HG,"Electoral Registration Officer
Council Offices
Argyle Road
Sevenoaks"
E07000112,Folkestone & Hythe District Council,elections@folkestone-hythe.gov.uk,01303 853497,http://www.folkestone-hythe.gov.uk,CT20 2QY,"Electoral Registration Officer
Civic Centre
Castle Hill Avenue
Folkestone"
E07000113,Swale Borough Council,elections@swale.gov.uk,01795 417316,http://www.swale.gov.uk/,ME10 3HT,"Electoral Registration Officer
Swale House
East Street
Sittingbourne"
E07000114,Thanet District Council,electoral.services@thanet.gov.uk,01843 577500,http://www.thanet.gov.uk/,CT9 1XZ,"Electoral Registration Officer
Council Offices
PO Box 9
Margate
Cecil Street"
E07000115,Tonbridge and Malling Borough Council,voting@tmbc.gov.uk,01732 876022,http://www.tmbc.gov.uk/,ME19 4LZ,"Electoral Registration Officer
Gibson Building
Gibson Drive
West Malling
Kings Hill"
E07000116,Tunbridge Wells Borough Council,electoralregistrations@tunbridgewells.gov.uk,01892 554024,http://www.tunbridgewells.gov.uk/,TN1 1RS,"Electoral Registration Officer
Town Hall
Mount Pleasant Road
Tunbridge Wells"
E07000117,Burnley Borough Council,democracy@burnley.gov.uk,01282 425011,http://www.burnley.gov.uk/,BB11 9SA,"Electoral Registration Officer
Town Hall
Manchester Road
Burnley"
E07000118,Chorley Borough Council,elections@chorley.gov.uk,01257 515151,http://www.chorley.gov.uk/Pages/default.aspx,PR7 1DP,"Electoral Registration Officer
Town Hall
Market Street
Chorley"
E07000119,Fylde Borough Council,electoral@fylde.gov.uk,01253 658658,http://www.fylde.gov.uk/,FY8 1LW,"Electoral Registration Officer
Town Hall
St Annes
Lytham St Annes"
E07000120,Hyndburn Borough Council,enquiries@hyndburnbc.gov.uk,01254 388111,http://www.hyndburnbc.gov.uk/,BB5 0PF,"Electoral Registration Officer
Scaitcliffe House
Ormerod Street"
E07000121,Lancaster City Council,elections@lancaster.gov.uk,01524 582905,http://www.lancaster.gov.uk/,LA1 1PJ,"Electoral Registration Officer
Town Hall
Dalton Square"
E07000122,Pendle Borough Council,elections@pendle.gov.uk,01282 661919,http://www.pendle.gov.uk/,BB9 7LG,"Electoral Registration Officer
Electoral Services
Market Street
Nelson"
E07000123,Preston City Council,electoralservices@preston.gov.uk,01772 906908,http://www.preston.gov.uk/,PR1 2RL,"Electoral Registration Officer
Electoral Services
Town Hall
Lancaster Road"
E07000124,Ribble Valley Borough Council,contact@ribblevalley.gov.uk,01200 414411,http://www.ribblevalley.gov.uk/,BB7 2RA,"Electoral Registration Officer
Council Offices
Church Walk
Clitheroe"
E07000125,Rossendale Borough Council,elections@rossendalebc.gov.uk,01706 252445,http://www.rossendale.gov.uk/,OL13 0BB,"Electoral Registration Officer
Futures Park
Bacup
Rossendale"
E07000126,South Ribble Borough Council,democraticservices@southribble.gov.uk,01772 625278,http://www.southribble.gov.uk/,PR25 1DH,"Electoral Registration Officer
Civic Centre
West Paddock"
E07000127,West Lancashire Borough Council,elections.office@westlancsdc.gov.uk,01695 585014,http://www.westlancs.gov.uk/,L39 2DF,"Electoral Registration Officer
52 Derby Street"
E07000128,Wyre Borough Council,electoral.services@wyre.gov.uk,01253 887257,http://www.wyrebc.gov.uk/,FY6 7PU,"Electoral Registration Officer
Civic Centre
Breck Road
Poulton-le-Fylde"
E07000129,Blaby District Council,electoral@blaby.gov.uk,0116 272 7560,http://www.blaby.gov.uk/,LE19 2EP,"Electoral Registration Officer
Council Offices
Desford Road
Narborough"
E07000130,Charnwood Borough Council,electoral.services@charnwood.gov.uk,01509 634546,https://www.charnwood.gov.uk/pages/electoral_services,LE11 2TR,"Electoral Registration Officer
Southfield Road
Loughborough"
E07000131,Harborough District Council,e.services@harborough.gov.uk,01858 821366 or 01858 821372,http://www.harborough.gov.uk/,LE16 7AG,"Electoral Registration Officer
Council Offices
Adam & Eve Street
Market Harborough"
E07000132,Hinckley & Bosworth Borough Council,elections.registration@hinckley-bosworth.gov.uk,01455 255830 / 01455 255835,http://www.hinckley-bosworth.gov.uk/registertovote,LE10 0FR,"Electoral Registration Officer
Hinckley & Bosworth Borough Council
Hinckley Hub
Hinckley
Rugby Road"
E07000133,Melton Borough Council,electoralservices@melton.gov.uk,01664 502502,http://www.melton.gov.uk/,LE13 1GH,"Electoral Registration Office
Parkside
Station Approach
Burton Street"
E07000134,North West Leicestershire District Council,electreg@nwleicestershire.gov.uk,01530 454512,http://www.nwleics.gov.uk/,LE67 3FJ,"Electoral Registration Officer
Council Offices
Coalville"
E07000135,Oadby & Wigston Borough Council,electoral.services@oadby-wigston.gov.uk,0116 257 2722,http://www.oadby-wigston.gov.uk/,LE18 2DR,"Electoral Registration Officer
Council Offices
Station Road
Wigston"
E07000136,Boston Borough Council,elreg@boston.gov.uk,01205 314200,http://www.boston.gov.uk/,PE21 8QR,"Electoral Registration Office
Municipal Buildings
West Street
Boston"
E07000137,East Lindsey District Council,elections@e-lindsey.gov.uk,01507 601111,http://www.e-lindsey.gov.uk/,LN11 8UP,"Electoral Registration Officer
Elections Office
Room 7
Tedder Hall; Manby Park"
E07000138,Lincoln City Council,electoral@lincoln.gov.uk,01522 873374 or 01522 873439,http://www.lincoln.gov.uk/,LN1 1DD,"Electoral Registration Officer
Electoral Services
City Hall
Beaumont Fee"
E07000139,North Kesteven District Council,elections@n-kesteven.gov.uk,01529 308238,http://www.n-kesteven.gov.uk/,NG34 7EF,"Electoral Registration Officer
Council Offices
Kesteven Street
Sleaford"
E07000140,South Holland District Council,elections@sholland.gov.uk,01775 761161,http://www.sholland.gov.uk/,PE11 2XE,"Electoral Registration Officer
Council offices
Priory Road
Spalding"
E07000141,South Kesteven District Council,elections@southkesteven.gov.uk,01476 406080,http://www.southkesteven.gov.uk/,NG31 6PZ,"Electoral Registration Officer
Council Offices
St. Peter's Hill
Grantham"
E07000142,West Lindsey District Council,ereg@west-lindsey.gov.uk,01427 676575/676680,http://www.west-lindsey.gov.uk/,DN21 2NA,"Electoral Registration Officer
Guildhall
Marshall’s Yard"
E07000143,Breckland Council,elections@breckland.gov.uk,01362 656870,http://www.breckland.gov.uk/,NR19 1EE,"Electoral Registration Officer
Elizabeth House
Walpole Loke
Dereham"
E07000144,Broadland District Council,election.services@broadland.gov.uk,01603 430483,http://www.broadland.gov.uk/,NR7 0DU,"Electoral Registration Officer
Thorpe Lodge
1 Yarmouth Road
Thorpe St Andrew"
E07000145,Great Yarmouth Borough Council,elections@great-yarmouth.gov.uk,01493 846548,http://www.great-yarmouth.gov.uk/,NR30 2QF,"Electoral Registration Officer
Town Hall
Hall Plain
Great Yarmouth"
E07000146,King's Lynn & West Norfolk,register.electors@west-norfolk.gov.uk,01553 616773,http://www.west-norfolk.gov.uk/,PE30 1EX,"Electoral Registration Officer
King's Court
Chapel Street
King's Lynn"
E07000147,North Norfolk District Council,register@north-norfolk.gov.uk,01263 513811,http://www.northnorfolk.org/,NR27 9EN,"Electoral Registration Officer
Holt Road
Cromer"
E07000148,Norwich City Council,elections@norwich.gov.uk,0344 980 3333,http://www.norwich.gov.uk/,NR2 1NH,"Electoral Registration Officer
City Hall
Norwich"
E07000149,South Norfolk District Council,elections@s-norfolk.gov.uk,01508 533704,http://www.south-norfolk.gov.uk/,NR15 2XE,"Electoral Registration Officer
South Norfolk House
Cygnet Court
Swan Lane; Long Stratton"
E07000150,Corby Borough Council,electoral.services@corby.gov.uk,01536 464012 / 464014,http://www.corby.gov.uk/,NN17 1QG,"Electoral Registration Officer
The Corby Cube
George Street
Corby"
E07000151,Daventry District Council,elections@daventrydc.gov.uk,01327 871100,http://www.daventrydc.gov.uk/,NN11 4FP,"Electoral Registration Officer
Lodge Road
Daventry"
E07000152,East Northamptonshire Council,elections@east-northamptonshire.gov.uk,01832 742155 / 742119,http://www.east-northamptonshire.gov.uk/,NN14 4LZ,"Electoral Registration Officer
East Northamptonshire House
Cedar Drive
Thrapston"
E07000153,Kettering Borough Council,elecreg@kettering.gov.uk,01536 534353,http://www.kettering.gov.uk/,NN15 7QX,"Electoral Registration Officer
Municipal Offices
Bowling Green Road"
E07000154,Northampton Borough Council,elecreg@northampton.gov.uk,01604 837111,http://www.northampton.gov.uk/,NN1 1DE,"Electoral Registration Officer
The Guildhall
St Giles Square"
E07000155,South Northamptonshire Council,elections@cherwellandsouthnorthants.gov.uk,01327 322128,http://www.southnorthants.gov.uk/,NN12 6AD,"Electoral Registration Officer
The Forum
Moat Lane
Towcester"
E07000156,Wellingborough Borough Council,elections@wellingborough.gov.uk,01933 231513,http://www.wellingborough.gov.uk/,NN8 1BP,"Electoral Registration Officer
Swanspool House
Doddington Road"
E07000163,Craven District Council,elections@cravendc.gov.uk,01756 706241,http://www.cravendc.gov.uk/,BD23 1FJ,"Electoral Registration Officer
1 Belle Vue Square
Broughton Road
Skipton"
E07000164,Hambleton District Council,elecreg@hambleton.gov.uk,01609 779977,http://www.hambleton.gov.uk/,DL6 2UU,"Electoral Registration Officer
Civic Centre
Stone Cross
Northallerton"
E07000165,Harrogate Borough Council,elect@harrogate.gov.uk,01423 556011,http://www.harrogate.gov.uk/Pages/default.aspx,HG1 2AE,"Civic Centre
St Lukes Avenue
Harrogate"
E07000166,Richmondshire District Council,er.elections@richmondshire.gov.uk,01748 829100,http://www.richmondshire.gov.uk/,DL10 4JX,"Electoral Registration Officer
Mercury House
Station Road
Richmond"
E07000167,Ryedale District Council,elections@ryedale.gov.uk,01653 600666,http://www.ryedale.gov.uk/,YO17 7HH,"Electoral Registration Officer
Ryedale House
Malton"
E07000168,Scarborough Borough Council,electors@scarborough.gov.uk,01723 232323,http://www.scarborough.gov.uk/,YO11 2HG,"Electoral Registration Officer
Town Hall
St Nicholas Street
Scarborough"
E07000169,Selby District Council,electoralregistration@selby.gov.uk,01757 705101,http://www.selby.gov.uk/home.asp,YO8 9FT,"Electoral Registration Officer
The Civic Centre
Doncaster Road
Selby"
E07000170,Ashfield District Council,regelec@ashfield-dc.gov.uk,01623 457321,http://www.ashfield-dc.gov.uk/,NG17 8DA,"Electoral Registration Officer
Council Offices
Urban Road
Kirkby-in-Ashfield"
E07000171,Bassetlaw District Council,elections@bassetlaw.gov.uk,01909 533 252,http://www.bassetlaw.gov.uk/,S80 2AH,"Electoral Registration Officer
Queen's Buildings
Potter Street
Worksop"
E07000172,Broxtowe Borough Council,elections@broxtowe.gov.uk,0115 917 3250 / 917 3276,http://www.broxtowe.gov.uk/,NG9 1AB,"Electoral Registration Officer
Council Offices
Foster Avenue
Beeston"
E07000173,Gedling Borough Council,elections@gedling.gov.uk,0115 9013917,http://www.gedling.gov.uk/,NG5 6LU,"Electoral Registration Officer
Civic Centre
Arnot Hill Park
Arnold"
E07000174,Mansfield District Council,elections@mansfield.gov.uk,01623 463463,http://www.mansfield.gov.uk/elections,NG19 7BH,"Electoral Registration Officer
Electoral Service
Civic Centre
Chesterfield Road South"
E07000175,Newark & Sherwood District Council,www.newark-sherwooddc.gov.uk/vote,01636 655459,http://www.newark-sherwooddc.gov.uk/,NG24 1BY,"Electoral Registration Officer
Castle House
Great North Road
Newark"
E07000176,Rushcliffe Borough Council,customerservices@rushcliffe.gov.uk,0115 981 9911,http://www.rushcliffe.gov.uk/,NG2 7YG,"Elections
Rushcliffe Borough Council
Rushcliffe Arena
West Bridgford
Rugby Road"
E07000177,Cherwell District Council,elections@cherwellandsouthnorthants.gov.uk,01295 227005,http://www.cherwell.gov.uk/,OX15 4AA,"Electoral Registration Officer
Bodicote House
Bodicote"
E07000178,Oxford City Council,elections@oxford.gov.uk,01865 252987,http://www.oxford.gov.uk/,OX1 1BX,"Electoral Registration Officer
Town Hall
St. Aldate's"
E07000179,South Oxfordshire District Council,elections@southandvale.gov.uk,01235 422528,http://www.southoxon.gov.uk/,OX14 4SB,"Electoral Registration Officer
135 Eastern Avenue
Milton Park
Abingdon
Milton"
E07000180,Vale of White Horse District Council,elections@southandvale.gov.uk,01235 422528,http://www.whitehorsedc.gov.uk/,OX14 4SB,"Electoral Registration Officer
135 Eastern Avenue
Milton Park
Abingdon
Milton"
E07000181,West Oxfordshire District Council,elections@westoxon.gov.uk,01993 861410,http://www.westoxon.gov.uk/,OX28 1NB,"Electoral Registration Officer
Council Offices
Wood Green
Witney"
E07000187,Mendip District Council,elections@mendip.gov.uk,01749 341236 / 341590,http://www.mendip.gov.uk/,BA4 5BT,"Electoral Registration Officer
Electoral Services Office
Cannards Grave Road
Shepton Mallet"
E07000188,Sedgemoor District Council,electoral.services@sedgemoor.gov.uk,0300 303 7804,http://www.sedgemoor.gov.uk/,TA6 3AR,"Electoral Registration Officer
Bridgwater House
King Square
Bridgwater"
E07000189,South Somerset District Council,elections@southsomerset.gov.uk,01935 462462,http://www.southsomerset.gov.uk/,BA20 2HT,"Electoral Registration Officer
Council Offices
Brympton Way"
E07000192,Cannock Chase District Council,electionsoffice@cannockchasedc.gov.uk,01543 462621,http://www.cannockchasedc.gov.uk/,WS11 1BG,"Electoral Registration Officer
Electoral Registration
Civic Centre; Beecroft Road"
E07000193,East Staffordshire Borough Council,elections@eaststaffsbc.gov.uk,01283 508376,http://www.eaststaffsbc.gov.uk/,DE14 9JG,"Electoral Registration Officer
ESBC
PO BOX 8045
Burton-upon-Trent"
E07000194,Lichfield District Council,elections@lichfielddc.gov.uk,01543 308125,http://www.lichfielddc.gov.uk/,WS13 6YU,"Electoral Registration Officer
District Council House
Frog Lane
Lichfield"
E07000195,Newcastle Under Lyme Borough Council,electreg@newcastle-staffs.gov.uk,01782 742227,http://www.newcastle-staffs.gov.uk/,ST5 1BL,"Electoral Registration Officer
Castle House
Barracks Road
Newcastle under Lyme"
E07000196,South Staffordshire District Council,elections@sstaffs.gov.uk,01902 696121,http://www.sstaffs.gov.uk/,WV8 1PX,"Electoral Registration Officer
Electoral Services
South Staffordshire Council; Council Offices"
E07000197,Stafford Borough Council,elections@staffordbc.gov.uk,01785 619424,http://www.staffordbc.gov.uk/,ST16 3AQ,"Electoral Registration Officer
Civic Centre
Riverside"
E07000198,Staffordshire Moorlands District Council,electoral.services@staffsmoorlands.gov.uk,01538 395500,http://www.staffsmoorlands.gov.uk/,ST13 6HQ,"Electoral Registration Officer
Moorlands House
Stockwell Street
Leek"
E07000199,Tamworth Borough Council,elections@tamworth.gov.uk,01827 709262/265,http://www.tamworth.gov.uk/,B79 7BZ,"Electoral Registration Officer
FREEPOST RSUR-AUZY-YBAR
Marmion House
Tamworth
Lichfield Street"
E07000200,Babergh District Council,elections@baberghmidsuffolk.gov.uk,0300 123 4000,http://www.babergh.gov.uk/elections,IP1 2BN,"Electoral Registration Officer
Endeavour House
8 Russell Road
Ipswich"
E07000202,Ipswich Borough Council,elections@ipswich.gov.uk,01473 432533,http://www.ipswich.gov.uk/,IP1 2DE,"Electoral Registration Officer
Grafton House
15-17 Russell Road
Ipswich"
E07000203,Mid Suffolk District Council,elections@baberghmidsuffolk.gov.uk,0300 123 4000,http://www.midsuffolk.gov.uk,IP1 2BN,"Electoral Registration Officer
Endeavour House
8 Russell Road
Ipswich"
E07000207,Elmbridge Borough Council,electoral@elmbridge.gov.uk,01372 474474,http://www.elmbridge.gov.uk/,KT10 9SD,"Electoral Registration Officer
Civic Centre
High Street
Esher"
E07000208,Epsom and Ewell Borough Council,electoralservices@epsom-ewell.gov.uk,01372 732152,http://www.epsom-ewell.gov.uk/,KT18 5BY,"Electoral Registration Officer
Town Hall
The Parade
Epsom"
E07000209,Guildford Borough Council,electoralservices@guildford.gov.uk,01483 444115,http://www.guildford.gov.uk/,GU2 4BB,"Electoral Registration Officer
Council Offices
Millmead house
Millmead"
E07000210,Mole Valley District Council,electoral.registration@molevalley.gov.uk,01306 879198,http://www.molevalley.gov.uk/,RH4 1SJ,"Electoral Registration Officer
Pippbrook
Dorking"
E07000211,Reigate and Banstead Borough Council,elreg@reigate-banstead.gov.uk,01737 276794,http://www.reigate-banstead.gov.uk/,RH2 0SH,"Electoral Registration Officer
Town Hall
Castlefield Road"
E07000212,Runnymede Borough Council,elec.services@runnymede.gov.uk,01932 425653,http://www.runnymede.gov.uk/,KT15 2AH,"Electoral Registration Officer
Civic Centre
Station Road
Addlestone"
E07000213,Spelthorne Borough Council,electoral.services@spelthorne.gov.uk,01784 444218,http://www.spelthorne.gov.uk/,TW18 1XB,"Electoral Registration Officer
Council Offices
Knowle Green
Staines-upon-Thames"
E07000214,Surrey Heath Borough Council,vote@surreyheath.gov.uk,01276 707165,http://www.surreyheath.gov.uk/,GU15 3HD,"Electoral Registration Officer
Surrey Heath House
Knoll Road
Camberley"
E07000215,Tandridge District Council,elections@tandridge.gov.uk,01883 722000,http://www.tandridge.gov.uk/,RH8 0BT,"Electoral Registration Officer
Council Offices
Station Road East
Oxted"
E07000216,Waverley Borough Council,electoral.services@waverley.gov.uk,01483 523116,http://www.waverley.gov.uk/,GU7 1HR,"Electoral Registration Officer
Waverley Borough Council
The Burys"
E07000217,Woking Borough Council,elections@woking.gov.uk,01483 755855,http://www.woking.gov.uk/,GU21 6YL,"Electoral Registration Officer
Civic Offices
Gloucester Square
Woking"
E07000218,North Warwickshire Borough Council,democraticservices@northwarks.gov.uk,01827 719222,http://www.northwarks.gov.uk/,CV9 1DE,"Electoral Registration Officer
The Council House
South Street
Atherstone"
E07000219,Nuneaton and Bedworth Borough Council,electoralreg@nuneatonandbedworth.gov.uk,024 7637 6230,http://www.nuneatonandbedworth.gov.uk/,CV11 5AA,"Electoral Registration Officer
Town Hall
Coton Road
Nuneaton"
E07000220,Rugby Borough Council,elections@rugby.gov.uk,01788 533595,http://www.rugby.gov.uk/,CV21 2RR,"Electoral Registration Officer
Town Hall
Evreux Way"
E07000221,Stratford on Avon District Council,elections@stratford-dc.gov.uk,01789 260209,http://www.stratford.gov.uk/index.cfm,CV37 6HX,"Electoral Registration Officer
Elizabeth House
Church Street
Stratford upon Avon"
E07000222,Warwick District Council,elections@warwickdc.gov.uk,01926 456105,http://www.warwickdc.gov.uk/,CV32 5HZ,"Electoral Registration Officer
Riverside House
Milverton Hill
Royal Leamington Spa"
E07000223,Adur District Council,elections@adur-worthing.gov.uk,01903 221069,http://www.adur-worthing.gov.uk,BN11 1HA,"Electoral Registration Officer
Town Hall
Chapel Road
Worthing"
E07000224,Arun District Council,elections@arun.gov.uk,01903 737616,http://www.arun.gov.uk/main.cfm,BN17 5LF,"Electoral Registration Officer
Arun Civic Centre
Maltravers Road
Littlehampton"
E07000225,Chichester District Council,elections@chichester.gov.uk,01243 521010,http://www.chichester.gov.uk/,P019 1TY,"Electoral Registration Officer
Elections Office
East Pallant House
Chichester"
E07000226,Crawley Borough Council,elections@crawley.gov.uk,01293 438346 / 438705,http://www.crawley.gov.uk/pw/index.htm,RH10 1UZ,"Electoral Registration Officer
Town Hall
The Boulevard
Crawley"
E07000227,Horsham District Council,elections@horsham.gov.uk,01403 215126,http://www.horsham.gov.uk/,RH12 1RL,"Electoral Registration Officer
Parkside
Chart Way
Horsham"
E07000228,Mid Sussex District Council,elections@midsussex.gov.uk,01444 477003,http://www.midsussex.gov.uk/elections-voting  ,RH16 1SS,"Electoral Registration Officer
Oaklands' Oaklands Road
Haywards Heath"
E07000229,Worthing Borough Council,elections@adur-worthing.gov.uk,01903 221069,http://www.adur-worthing.gov.uk/,BN11 1HA,"Electoral Registration Officer
Town Hall
Chapel Road"
E07000234,Bromsgrove District Council,elections@bromsgroveandredditch.gov.uk,01527 881421,http://www.bromsgrove.gov.uk/elections,B61 8DA,"Electoral Registration Officer
Bromsgrove District Council
Parkside
Bromsgrove
Market Street"
E07000235,Malvern Hills District Council,elections@malvernhills.gov.uk,01684 862200,http://www.malvernhills.gov.uk/,WR14 3AF,"Electoral Registration Officer
Electoral Services Section
Council House
Avenue Road; Malvern"
E07000236,Redditch Borough Council,elections@bromsgroveandredditch.gov.uk,01527 881421,http://redditch.whub.org.uk/cms/,B98 8AH,"Electoral Registration Officer
Town Hall
Walter Stranz Square"
E07000237,Worcester City Council,ElectoralServices@worcester.gov.uk,01905 722530,http://www.worcester.gov.uk/,WR1 2EY,"Electoral Registration Officer
Guildhall
High Street"
E07000238,Wychavon District Council,elections@wychavon.gov.uk,01386 565437,http://www.wychavon.gov.uk/,WR10 1PT,"Electoral Registration Officer
Civic Centre
Queen Elizabeth Drive
Pershore"
E07000239,Wyre Forest District Council,customerservice@wyreforestdc.gov.uk,01562 732928 / 01562 732733,http://www.wyreforestdc.gov.uk/,DY11 7WF,"Electoral Registration Officer
Wyre Forest House
Fine Point Way
Kidderminster"
E07000240,St Albans City & District Council,elections@stalbans.gov.uk,01727 819294,http://www.stalbans.gov.uk/,AL1 3JE,"Electoral Registration Officer
District Council Offices
Civic Centre; St Peters Street"
E07000241,Welwyn Hatfield Borough Council,elections@welhat.gov.uk,01707 357 300,http://www.welhat.gov.uk,AL8 6AE,"Electoral Registration Officer
The Campus
Welwyn Garden City"
E07000242,East Hertfordshire District Council,electors@eastherts.gov.uk,01279 655261,http://www.eastherts.gov.uk/,SG13 8EQ,"Electoral Registration Officer
Wallfields
Pegs Lane"
E07000243,Stevenage Borough Council,electoral@stevenage.gov.uk,01438 242213,http://www.stevenage.gov.uk/,SG1 1HN,"Electoral Registration Officer
Daneshill House
Danestrete; Stevenage"
E07000244,East Suffolk Council,elections@eastsuffolk.gov.uk,01394 444422,https://www.eastsuffolk.gov.uk/,IP12 1RT,"East Suffolk House
Station Road
Melton
Woodbridge"
E07000245,West Suffolk Council,elections@westsuffolk.gov.uk,01284 757131,https://www.westsuffolk.gov.uk/,IP33 3YU,"West Suffolk Council
West Suffolk House
Western Way
Bury St Edmunds
Suffolk"
E07000246,Somerset West & Taunton Council,elections@somersetwestandtaunton.gov.uk,01823 358692,https://www.somersetwestandtaunton.gov.uk/,TA4 4QA,"Electoral Services
West Somerset House
Killick Way
Williton"
E08000001,Bolton Metropolitan Borough Council,elections@bolton.gov.uk,01204 331248 / 338784 / 338785,http://www.bolton.gov.uk/home/Pages/default.aspx,BL1 1RU,"Electoral Registration Officer
Room 207
Town Hall"
E08000002,Bury Metropolitan Borough Council,electionservices@bury.gov.uk,0161 253 5252,http://www.bury.gov.uk/,BL9 0SW,"Electoral Registration Officer
Elections and Electoral Registration
Town Hall
Knowsley Street"
E08000003,Manchester City Council,esu@manchester.gov.uk,0161 234 1212,http://www.manchester.gov.uk/,M11 2EZ,"Electoral Services Unit
Manchester City Council
Lawton Street
Openshaw"
E08000004,Oldham Metropolitan Borough Council,election@oldham.gov.uk,0161 770 4718 or 4712,http://www.oldham.gov.uk/,OL1 1UT,"Electoral Registration Officer
The Elections Office
Civic Centre
West Street"
E08000005,Rochdale Metropolitan Borough Council,elections@rochdale.gov.uk,0300 303 0345,http://www.rochdale.gov.uk/,OL16 1XU,"Electoral Registration Officer
Number One Riverside
Smith Street"
E08000006,Salford City Council,elections@salford.gov.uk,0161 793 2500,http://www.salford.gov.uk/,M27 5DA,"Electoral Registration Officer
Salford Civic Centre
Chorley Road
Swinton"
E08000007,Stockport Metropolitan Borough Council,elections.office@stockport.gov.uk,0161 217 6026,http://www.stockport.gov.uk/,SK1 3XE,"Electoral Registration Officer
Town Hall
Edward Street"
E08000008,Tameside Metropolitan Borough Council,elections@tameside.gov.uk,0161 342 3036,http://www.tameside.gov.uk/,SK16 4LA,"Electoral Registration Officer
Dukinfield Town Hall
King Street
Dukinfield"
E08000009,Trafford Metropolitan Borough Council,elections@trafford.gov.uk,0161 912 4259,http://www.trafford.gov.uk/residents/residents.aspx,M32 0TH,"Electoral Registration Officer
Trafford Town Hall
Talbot Road
Stretford"
E08000010,Wigan Metropolitan Borough Council,elections@wigan.gov.uk,01942 827168,http://www.wigan.gov.uk/index.aspx,WN1 1YN,"Electoral Registration Officer
Town Hall
Library Street"
E08000011,Knowsley Metropolitan Borough Council,elections@knowsley.gov.uk,0151 443 2222,http://www.knowsley.gov.uk/,L36 9YU,"Electoral Registration Officer
PO Box 21
Archway Road
Huyton"
E08000012,Liverpool City Council,elections@liverpool.gov.uk,0151 233 3028,http://www.liverpool.gov.uk/,L1 6BW,"Electoral Registration Officer
Electoral Services
Venture Place
Sir Thomas Street
Liverpool"
E08000013,St Helens Metropolitan Borough Council,elections@sthelens.gov.uk,01744 676464,http://www.sthelens.gov.uk/,WA10 1HP,"Electoral Registration Officer
St Helens Town hall
Victoria Square"
E08000014,Sefton Metropolitan Borough Council,electors@sefton.gov.uk,0345 140 0845,http://www.sefton.gov.uk/,L20 7AE,"Electoral Registration Officer
Electoral Services
Bootle Town Hall
Bootle
Oriel Road"
E08000015,Wirral Metropolitan Borough Council,electoral@wirral.gov.uk,0151 691 8046,http://www.wirral.gov.uk/,CH44 8ED,"Electoral Registration Officer
Town Hall
Brighton Street
Wallasey"
E08000016,Barnsley Metropolitan Borough Council,ElectoralServices@barnsley.gov.uk,01226 773070,http://www.barnsley.gov.uk/,S70 9GG,"Electoral Registration Officer
PO Box 634
Barnsley"
E08000017,Doncaster Metropolitan Borough Council,elections@doncaster.gov.uk,01302 734658,http://doncaster.gov.uk/elections,DN1 3BU,"Electoral Registration Officer
Legal and Democratic Services
Civic Building
Waterdale"
E08000018,Rotherham Metropolitan Borough Council,electoral.services@rotherham.gov.uk,01709 823590,http://www.rotherham.gov.uk/,S60 1AE,"Electoral Registration Officer
Riverside House
Main Street"
E08000019,Sheffield City Council,elections@sheffield.gov.uk,0114 273 4093,http://www.sheffield.gov.uk/,S1 2HY,"Electoral Registration Officer
Sheffield City Council
Town Hall"
E08000021,Newcastle City Council,elections@newcastle.gov.uk,0191 278 7878,http://www.newcastle.gov.uk/,NE1 8QH,"Electoral Registration Officer
Civic Centre"
E08000022,North Tyneside Council,elections@northtyneside.gov.uk,0191 643 2270,http://www.northtyneside.gov.uk/,NE27 0BY,"Electoral Registration Officer
Quadrant
The Silverlink North
Cobalt Business Park"
E08000023,South Tyneside Metropolitan Borough Council,elections@southtyneside.gov.uk,0191 424 7230,http://www.southtyneside.gov.uk/elections,NE33 2RL,"Electoral Registration Officer
Town Hall
Westoe Road
South Shields"
E08000024,Sunderland City Council,elections@sunderland.gov.uk,0191 520 5550,http://www.sunderland.gov.uk/,SR2 7DN,"Electoral Registration Officer
Room 3.17
Civic Centre
Burdon Road"
E08000025,Birmingham City Council,elections@birmingham.gov.uk,0121 303 2731,http://www.birmingham.gov.uk/,B1 1BB,"Electoral Registration Officer
Council House
Victoria Square"
E08000026,Coventry City Council,electoral.services@coventry.gov.uk,024 7683 3034,http://www.coventry.gov.uk/,CV1 5RR,"Electoral Registration Officer
Room 14
Council House
Earl Street"
E08000027,Dudley Metropolitan Borough Council,elections.cexec@dudley.gov.uk,01384 814740,http://www.dudley.gov.uk/,DY1 1EY,"Electoral Registration Officer
Old Crown Court
Priory Street
DUDLEY"
E08000028,Sandwell Metropolitan Borough Council,electoral_services@sandwell.gov.uk,0121 569 3242/3244,http://www.sandwell.gov.uk/,B69 3DE,"Electoral Registration Officer
Sandwell Council House
Freeth Street; Oldbury"
E08000029,Solihull Metropolitan Borough Council,election@solihull.gov.uk,0121 704 6042,http://www.solihull.gov.uk/,B91 3QB,"Electoral Registration Officer
P O Box 18
Council House"
E08000030,Walsall Metropolitan Borough Council,electionoffice@walsall.gov.uk,01922 652502,http://www.walsall.gov.uk/,WS1 1AE,"Electoral Registration Officer
Walsall Council
Council House
Lichfield Street"
E08000031,Wolverhampton City Council,customer.services@wolverhampton.gov.uk,01902 551177,http://www.wolverhampton.gov.uk/elections,WV1 1SH,"Electoral Services
Civic Centre
City of Wolverhampton Council
St Peter's Square"
E08000032,Bradford Council,electoralservices@bradford.gov.uk,01274 432287,http://www.bradford.gov.uk/elections,BD1 1HY,"Electoral Services Unit
Centenary Square
City Hall"
E08000033,Calderdale Metropolitan Borough Council,electoral-services@calderdale.gov.uk,01422 393059 / 393060,http://www.calderdale.gov.uk/,HX1 1SP,"Electoral Registration Officer
Electoral Services
Mulcture House
Halifax
Mulcture Hall Road"
E08000034,Kirklees Metropolitan Council,electoral.registration@kirklees.gov.uk,01484 221650,http://www.kirklees.gov.uk/,HD1 2NG,"Electoral Registration Officer
Kirklees Metropolitan Council
3-5 Albion Street"
E08000035,Leeds City Council,electors@leeds.gov.uk,0113 2224411,https://www.leeds.gov.uk/your-council/elections,LS1 3AD,"Electoral Registration Officer
Electoral Services
Leeds Town Hall
The Headrow"
E08000036,Wakefield Metropolitan District Council,Elections@wakefield.gov.uk,01924 305023,http://www.wakefield.gov.uk/,WF1 2QW,"Electoral Registration Officer
Room 51
County Hall"
E08000037,Gateshead Metropolitan Borough Council,electoralregistration@gateshead.gov.uk,0191 433 2166,http://www.gateshead.gov.uk/,NE8 1HH,"Electoral Registration Officer
Legal and Corporate Services Central Services
Civic Centre
Regent Street"
E09000001,City of London Corporation,electoralservices@cityoflondon.gov.uk,0800 587 5537,http://www.cityoflondon.gov.uk/,EC2P 2EJ,"Electoral Registration Officer
PO Box 270
Guildhall"
E09000002,London Borough of Barking and Dagenham,electoral.services@lbbd.gov.uk,020 8215 3000,http://www.lbbd.gov.uk/,IG11 7LU,"Electoral Registration Officer
Ground Floor North
Town Hall
Barking
1 Town Square"
E09000003,London Borough of Barnet,ero@barnet.gov.uk,020 8359 5577,http://www.barnet.gov.uk,NW9 4EW,"Electoral Services
2 Bristol Avenue
Colindale
London"
E09000004,London Borough of Bexley,elections.office@bexley.gov.uk,020 3045 3614 /15,http://www.bexley.gov.uk/,DA6 7AT,"Electoral Registration Officer
Civic Offices
2 Watling Street
Bexleyheath"
E09000005,London Borough of Brent,electoral.services@brent.gov.uk,020 8937 1372,http://www.brent.gov.uk/elections,HA9 0FJ,"Electoral Services
Civic Centre
Engineers Way"
E09000006,London Borough of Bromley,electoral@bromley.gov.uk,0300 303 8665,http://www.bromley.gov.uk/,BR1 3UH,"Electoral Registration Officer
Electoral Services
Civic Centre
Stockwell Close"
E09000007,London Borough of Camden,electoral.services@camden.gov.uk,020 7974 6000,http://www.camden.gov.uk/,NW1 3BD,"Electoral Registration Officer
Camden Electoral Services
1st Floor, 218 Eversholt Street
Crowndale Centre"
E09000008,London Borough of Croydon,electoral.services@croydon.gov.uk,020 8726 6300,http://www.croydon.gov.uk/,CR9 1DE,"Electoral Registration Officer
The Town Hall
Katharine Street"
E09000009,London Borough of Ealing,elections@ealing.gov.uk,020 8825 7777,http://www.ealing.gov.uk/,UB6 9QN,"Electoral Registration Officer
Greenford Hall
Ruislip Road"
E09000010,London Borough of Enfield,elections@enfield.gov.uk,020 8379 8582,http://www.enfield.gov.uk/,EN1 3XA,"Electoral Registration Officer
First Floor
Enfield Civic Centre
Silver Street"
E09000011,Royal Borough of Greenwich,elect@royalgreenwich.gov.uk,020 8921 5184,http://www.royalgreenwich.gov.uk,SE18 6PW,"Electoral Registration Officer
Electoral Services - Town Hall
Wellington Street"
E09000012,London Borough of Hackney,info@hackney.gov.uk,020 8356 3232,http://www.hackney.gov.uk/,E8 1EA,"Electoral Registration Officer
Hackney Town Hall
Mare Street
London"
E09000013,London Borough of Hammersmith and Fulham,electoral.servicesadmin@lbhf.gov.uk,020 8753 4466,http://www.lbhf.gov.uk/,W6 9JU,"Electoral Registration Officer
Room 28
Hammersmith Town Hall
King Street"
E09000014,London Borough of Haringey,elections@haringey.gov.uk,020 8489 1000,http://voting.haringey.gov.uk/,N22 8YX,"Electoral Registration Officer
Chief Executive’s Corporate Governance Division, Haringey Council
George Meehan House
Wood Green
High Road"
E09000015,London Borough of Harrow,elections@harrow.gov.uk,020 8901 2660,http://www.harrow.gov.uk/,HA1 2XQ,"Electoral Registration Officer
Electoral Services
P.O. Box 71; Civic Centre"
E09000016,London Borough of Havering,elections@havering.gov.uk,01708 432444,http://www.havering.gov.uk/,RM1 3BD,"Electoral Registration Officer
Election Services
Town Hall
Main Road"
E09000017,London Borough of Hillingdon,electoralservices@hillingdon.gov.uk,01895 250251,http://www.hillingdon.gov.uk/,UB8 1UW,"Electoral Registration Officer
Phase II
Civic Centre
High Street; Uxbridge"
E09000018,London Borough of Hounslow,elections@hounslow.gov.uk,020 8583 2828,http://www.hounslow.gov.uk/elections,TW3 3EB,"Electoral Registration Officer
Hounslow House
7 Bath Road
Hounslow"
E09000019,London Borough of Islington,electoral.services@islington.gov.uk,020 7527 3110,http://www.islington.gov.uk/voting,N1 2UD,"Electoral Registration Officer
Islington Town Hall
Upper Street"
E09000020,Royal Borough of Kensington and Chelsea,elect@rbkc.gov.uk,020 7361 3444,http://www.rbkc.gov.uk/,W8 7NX,"Electoral Registration Officer
Electoral Registration
The Town Hall Hornton Street"
E09000021,Royal Borough of Kingston Upon Thames,electoral.services@kingston.gov.uk,020 8547 5026,http://www.kingston.gov.uk/elections,KT1 1EU,"Electoral Registration Officer
Guildhall
2 High Street"
E09000022,London Borough of Lambeth,electoralservices@lambeth.gov.uk,020 7926 2254,http://www.lambeth.gov.uk/,SW2 1RW,"Electoral Registration Officer
Lambeth Town Hall
2 Brixton Hill
London"
E09000023,London Borough of Lewisham,electoral.services@lewisham.gov.uk,020 8314 6086,http://www.lewisham.gov.uk/,SE6 4RU,"Electoral Registration Officer
Lewisham Town Hall
Catford Road
Catford"
E09000024,London Borough of Merton,electoral.services@merton.gov.uk,0208 274 4901,http://www.merton.gov.uk/,SM4 5DX,"Electoral Registration Officer
Merton Civic Centre
London Road"
E09000025,London Borough of Newham,elections@newham.gov.uk,020 8430 2000,http://www.newham.gov.uk/,E6 2RP,"Electoral Registration Officer
Electoral Services
Town Hall
Barking Road"
E09000026,London Borough of Redbridge,electoral.services@redbridge.gov.uk,020 8708 7171 / 7172,http://www.redbridge.gov.uk/,IG1 1DD,"Electoral Registration Officer
Ilford Town Hall
128-142 High Road
Ilford"
E09000027,London Borough of Richmond Upon Thames,electoral.services@richmond.gov.uk,020 8891 7775,http://www.richmond.gov.uk/vote,TW1 3AA,"Electoral Services
York House Stable Block
Richmond Road
Twickenham"
E09000028,London Borough of Southwark,electoralenquiries@southwark.gov.uk,020 7525 7373,http://www.southwark.gov.uk/,SE1 2QH,"Electoral Registration Officer
Electoral Services
160 Tooley St
London"
E09000029,London Borough of Sutton,electoralservices@sutton.gov.uk,020 8770 4179,http://www.sutton.gov.uk/,SM1 1EA,"Electoral Registration Officer
Civic Offices
St. Nicholas Way
Sutton"
E09000030,London Borough of Tower Hamlets,electoralservices@towerhamlets.gov.uk,020 7364 0872,http://www.towerhamlets.gov.uk/,E14 2BG,"Electoral Services
London Borough of Tower Hamlets
7th Floor
Mulberry Place
5 Clove Crescent
London"
E09000031,London Borough of Waltham Forest,Electoral.Services@walthamforest.gov.uk,020 8496 3000,http://www.walthamforest.gov.uk,E17 4JF,"Electoral Registration Officer
London Borough of Waltham Forest
Room 13
Walthamstow Town Hall"
E09000032,London Borough of Wandsworth,electoral@wandsworth.gov.uk,020 8871 6023,http://www.wandsworth.gov.uk/vote,SW18 2PU,"Electoral Registration Officer
Town Hall
Wandsworth High Street
London"
E09000033,City of Westminster,electoralservices@westminster.gov.uk,020 7641 2730,http://www.westminster.gov.uk/,SW1E 6QP,"Electoral Registration Officer
Westminster City Council
14th Floor, City Hall
64 Victoria Street"
W06000001,Isle of Anglesey County Council,shxcs@ynysmon.gov.uk,01248 752519,http://www.anglesey.gov.uk/,LL77 7TW,"Managing Director's Department
Isle of Anglesey County Council
Council Offices
Llangefni"
W06000002,Gwynedd Council,galwgwynedd@gwynedd.gov.uk,01766 771000,http://www.gwynedd.gov.uk/,LL55 1SH,"Electoral Registration Officer
Council Offices
Caernarfon"
W06000003,Conwy County Borough Council,electoral@conwy.gov.uk,01492 576051 / 01492 576052,http://www.conwy.gov.uk/,LL32 8DU,"Electoral Registration Officer
Bodlondeb"
W06000004,Denbighshire County Borough Council,elections@denbighshire.gov.uk,01824 706101,http://www.denbighshire.gov.uk/,LL15 1YN,"Electoral Registration Officer
Denbighshire County Council
County Offices
Ruthin
Wynstay Road"
W06000005,Flintshire County Council,register@flintshire.gov.uk,01352 702329 / 01352 702327 / 01352 702412,http://www.flintshire.gov.uk/,CH7 6NB,"Electoral Registration Officer
Flintshire County Council
County Hall"
W06000006,Wrexham County Borough Council,electoral@wrexham.gov.uk,01978 292020,http://www.wrexham.gov.uk/,LL11 1AY,"Electoral Registration Officer
The Guildhall
Wrexham"
W06000008,Ceredigion County Council,electoralservices@ceredigion.gov.uk,01545 570881,https://www.ceredigion.gov.uk/your-council/voting-elections/,SA46 0PA,"Electoral Registration Officer
Neuadd Cyngor Ceredigion
Penmorfa
Aberaeron"
W06000009,Pembrokeshire County Council,electoralservices@pembrokeshire.gov.uk,01437  775844,http://www.pembrokeshire.gov.uk/,SA73 2RR,"Electoral Services
Pembrokeshire County Council
Unit 23
Milford Haven
Thornton Business Park"
W06000010,Carmarthenshire County Council,electoralservices@carmarthenshire.gov.uk,01267 228889,http://www.carmarthenshire.gov.uk/,SA31 1HQ,"Electoral Registration Officer
Block 4
Parc Myrddin
Carmarthen"
W06000011,City & County of Swansea,elections@swansea.gov.uk,01792 636123,http://www.swansea.gov.uk/,SA1 4PE,"Electoral Registration Officer
Electoral Services
Room 216
Guildhall"
W06000012,Neath Port Talbot County Borough Council,elections@npt.gov.uk,01639 763330,http://www.neath-porttalbot.gov.uk/,SA13 1PJ,"Electoral Registration Officer
Civic Centre"
W06000013,Bridgend County Borough Council,electoral@bridgend.gov.uk,01656 643116 / 643117 / 643293,http://www.bridgend.gov.uk/,CF31 4WB,"Electoral Registration Officer
Electoral Services
Chief Executive’s Directorate
Civic Offices Angel Street
Bridgend County Borough Council"
W06000014,Vale of Glamorgan Council,electoralregistration@valeofglamorgan.gov.uk,01446 729552,http://www.valeofglamorgan.gov.uk/,CF63 4RU,"Electoral Registration Officer
Civic Offices
Holton Road
Barry"
W06000015,City of Cardiff Council,electoralservices@cardiff.gov.uk,029 2087 2087,http://www.cardiff.gov.uk/,CF10 4UW,"Electoral Registration Officer
County Hall Atlantic Wharf"
W06000016,Rhondda Cynon Taf County Borough Council,electoralservices@rhondda-cynon-taf.gov.uk,01443 490100,http://www.rhondda-cynon-taff.gov.uk/,CF37 1JW,"Electoral Services
The Old Courthouse
Courthouse Street
Rhondda Cynon Taf County Borough Council"
W06000018,Caerphilly County Borough Council,electoralservices@caerphilly.gov.uk,01443 864203,http://www.caerphilly.gov.uk/,CF81 8ND,"Electoral Registration Officer
Gilfach House
William Street
Bargoed
Gilfach"
W06000019,Blaenau Gwent County Borough Council,electoralservices@blaenau-gwent.gov.uk,01495 355086,http://www.blaenau-gwent.gov.uk/,NP23 6DN,"Electoral Registration Officer
The General Offices
Steelworks Road"
W06000020,Torfaen County Borough Council,voting@torfaen.gov.uk,01495 762200,http://www.torfaen.gov.uk/,NP4 6YB,"Electoral Registration Officer
Civic Centre
Pontypool"
W06000021,Monmouthshire County Council,elections@monmouthshire.gov.uk,01633 644212,http://www.monmouthshire.gov.uk/,NP26 9AN,"Electoral Registration Officer
Monmouthshire County Council
PO Box 106
Magor"
W06000022,Newport City Council,uvote@newport.gov.uk,01633 656656,http://www.newport.gov.uk/,NP20 4UR,"Electoral Registration Officer
Civic Centre
Newport"
W06000023,Powys County Council,electoral.services@powys.gov.uk,01597 826747 or 01597 826717,http://www.powys.gov.uk/,LD1 5LG,"Electoral Registration Officer
County Hall
Llandrindod Wells"
W06000024,Merthyr Tydfil County Borough Council,electoral@merthyr.gov.uk,01685 725284,http://www.merthyr.gov.uk/,CF47 8AN,"Electoral Registration Officer
Civic Centre
Castle Street
Merthyr Tydfil"
