gss,name,email,phone,website,postcode,address
N09000001,,info@eoni.org.uk,,http://www.eoni.org.uk/,BT1 1ER,"The Electoral Office Headquarters
St Anne's House
15 Church Street
Belfast"
N09000002,,info@eoni.org.uk,,http://www.eoni.org.uk/,BT1 1ER,"The Electoral Office Headquarters
St Anne's House
15 Church Street
Belfast"
N09000003,,info@eoni.org.uk,,http://www.eoni.org.uk/,BT1 1ER,"The Electoral Office Headquarters
St Anne's House
15 Church Street
Belfast"
N09000004,,info@eoni.org.uk,,http://www.eoni.org.uk/,BT1 1ER,"The Electoral Office Headquarters
St Anne's House
15 Church Street
Belfast"
N09000005,,info@eoni.org.uk,,http://www.eoni.org.uk/,BT1 1ER,"The Electoral Office Headquarters
St Anne's House
15 Church Street
Belfast"
N09000006,,info@eoni.org.uk,,http://www.eoni.org.uk/,BT1 1ER,"The Electoral Office Headquarters
St Anne's House
15 Church Street
Belfast"
N09000007,,info@eoni.org.uk,,http://www.eoni.org.uk/,BT1 1ER,"The Electoral Office Headquarters
St Anne's House
15 Church Street
Belfast"
N09000008,,info@eoni.org.uk,,http://www.eoni.org.uk/,BT1 1ER,"The Electoral Office Headquarters
St Anne's House
15 Church Street
Belfast"
N09000009,,info@eoni.org.uk,,http://www.eoni.org.uk/,BT1 1ER,"The Electoral Office Headquarters
St Anne's House
15 Church Street
Belfast"
N09000010,,info@eoni.org.uk,,http://www.eoni.org.uk/,BT1 1ER,"The Electoral Office Headquarters
St Anne's House
15 Church Street
Belfast"
N09000011,,info@eoni.org.uk,,http://www.eoni.org.uk/,BT1 1ER,"The Electoral Office Headquarters
St Anne's House
15 Church Street
Belfast"
